SHIYAN-24C 02           
1 58651U 23206B   26068.89175597  .00002770  00000+0  23935-3 0  9991
2 58651  97.3985  41.8071 0003465  80.6641 279.4974 14.97980163120443
STARLINK-33863          
1 63864U 25094A   26068.85933094  .00011592  00000+0  97754-3 0  9992
2 63864  70.0016 234.2309 0003162 273.2150  86.8647 14.98336062 47224
